TDRS 3                  
1 19548U 88091B   22267.08105003 -.00000294  00000+0  00000+0 0  9993
2 19548  13.6445 350.5394 0035305 326.6882  26.0042  1.00276519111729
FLTSATCOM 8 (USA 46)    
1 20253U 89077A   22266.75257656 -.00000075  00000+0  00000+0 0  9995
2 20253  12.8314 359.5597 0007054 145.9444 199.9061  1.00273670246949
SKYNET 4C               
1 20776U 90079A   22266.94264925  .00000131  00000+0  00000+0 0  9999
2 20776  13.7775 359.3061 0002708 189.2905 186.9621  1.00269869117230
TDRS 5                  
1 21639U 91054B   22267.38035546  .00000090  00000+0  00000+0 0  9990
2 21639  14.2309   3.8630 0022364   1.7541 326.8600  1.00270302114058
TDRS 6                  
1 22314U 93003B   22267.14910448 -.00000289  00000+0  00000+0 0  9995
2 22314  14.1380   7.1193 0010850 133.4756 230.1268  1.00277845108752
UFO 2 (USA 95)          
1 22787U 93056A   22266.93962554  .00000130  00000+0  00000+0 0  9992
2 22787  11.4904  10.6103 0004583 181.9046 177.2386  1.00269522104889
USA 99 (MILSTAR-1 1)    
1 22988U 94009A   22267.05882674 -.00000189  00000+0  00000+0 0  9997
2 22988  15.5045  42.0649 0003047 167.3457  84.6915  1.00272669 19302
USA 107 (DSP 17)        
1 23435U 94084A   22267.23938354 -.00000161  00000+0  00000+0 0  9995
2 23435  14.5806   4.9584 0001256 176.8368 170.9114  1.00275835 19291
UFO 4 (USA 108)         
1 23467U 95003A   22267.54869847 -.00000017  00000+0  00000+0 0  9996
2 23467   9.8290  17.4970 0005500 141.0763 214.6466  1.00271248101299
AMSC 1                  
1 23553U 95019A   22267.45534375 -.00000087  00000+0  00000+0 0  9991
2 23553  12.0375  25.5485 0004911 158.9281 235.2370  1.00272542100529
TDRS 7                  
1 23613U 95035B   22267.57495069 -.00000196  00000+0  00000+0 0  9996
2 23613  13.9407 357.8127 0025578  59.8128 237.4645  1.00276856 99592
USA 113                 
1 23628U 95038A   22267.58363192 -.00000332  00000+0  00000+0 0  9999
2 23628  12.1619  24.3518 0001150 159.5377 133.3510  1.00270681 19315
USA 115 (MILSTAR-1 2)   
1 23712U 95060A   22267.43895981 -.00000013  00000+0  00000+0 0  9994
2 23712  13.5635  13.5522 0002414 177.9644 209.7970  1.00270891 19234
INMARSAT 3-F1           
1 23839U 96020A   22267.47278914  .00000120  00000+0  00000+0 0  9994
2 23839   7.7411  57.4563 0007904 108.7737 212.1679  0.99992762 96635
INMARSAT 3-F2           
1 24307U 96053A   22266.96646611 -.00000155  00000+0  00000+0 0  9996
2 24307   6.7368  66.2132 0007160  79.5584 293.7058  0.99978221 95308
AMC-1 (GE-1)            
1 24315U 96054A   22267.42673186  .00000067  00000+0  00000+0 0  9996
2 24315   5.8482  72.2894 0003043 118.0000 195.6917  1.00273432 32663
INMARSAT 3-F3           
1 24674U 96070A   22267.22271785 -.00000237  00000+0  00000+0 0  9999
2 24674   7.3435  61.0417 0006784 111.8461 242.1104  1.00002475 94289
GALAXY 25 (G-25)        
1 24812U 97026A   22267.17268596 -.00000003  00000+0  00000+0 0  9996
2 24812   3.9316  82.6405 0002590 117.4623 291.1767  1.00272778 92723
INTELSAT 5 (IS-5)       
1 24916U 97046A   22267.42211464 -.00000058  00000+0  00000+0 0  9993
2 24916   7.4357  60.3489 0004715 142.3653 118.6365  1.00271730 91967
AMC-3 (GE-3)            
1 24936U 97050A   22267.26229917 -.00000258  00000+0  00000+0 0  9996
2 24936   4.7806  78.5337 0002822 114.5344 192.4478  1.00271054 38770
USA 134                 
1 25019U 97065A   22267.51391538 -.00000056  00000+0  00000+0 0  9998
2 25019  11.1659  30.8586 0001214  67.6930 337.6361  1.00275429 19303
ASTRA 1G                
1 25071U 97076A   22267.16344272  .00000118  00000+0  00000+0 0  9990
2 25071   6.4654  67.5092 0003460 117.4354 256.3182  1.00275041 90858
INMARSAT 3-F5           
1 25153U 98006B   22267.25674458 -.00000286  00000+0  00000+0 0  9994
2 25153   6.6149  65.0941 0004636 121.8427 214.5940  1.00275268 90233
UFO 8 (USA 138)         
1 25258U 98016A   22267.56048262  .00000053  00000+0  00000+0 0  9994
2 25258   9.5319  29.4738 0002047 136.5751 220.2465  1.00308038 90198
ASTRA 2A                
1 25462U 98050A   22267.17094196  .00000069  00000+0  00000+0 0  9990
2 25462   3.6443  84.4885 0002983 114.2598 282.9847  1.00272294 32686
SKYNET 4E               
1 25639U 99009B   22267.08749123 -.00000030  00000+0  00000+0 0  9997
2 25639  11.2959  16.3834 0003647 170.4560 206.1123  1.00275572 37736
ABS-7                   
1 25894U 99046A   22267.52063706 -.00000264  00000+0  00000+0 0  9995
2 25894   3.0054  86.5705 0004712  56.3671 196.2877  0.99978542 83469
ABS-6                   
1 25924U 99053A   22267.48929633 -.00000121  00000+0  00000+0 0  9994
2 25924   0.0168 142.7369 0001176  10.1036 185.6122  1.00272109 84196
AMC-4 (GE-4)            
1 25954U 99060A   22267.49747867  .00000087  00000+0  00000+0 0  9993
2 25954   1.7629  90.6749 0002707  92.6293 224.2108  1.00271857 29892
UFO 10 (USA 146)        
1 25967U 99063A   22267.17480184 -.00000182  00000+0  00000+0 0  9998
2 25967   8.8306  33.0810 0005541 146.1749 223.8861  1.00272980 83693
GALAXY 11 (G-11)        
1 26038U 99071A   22267.18243995 -.00000162  00000+0  00000+0 0  9993
2 26038   3.2552  86.3834 0000982 196.0546  53.1555  1.00271509 83426
USA 148                 
1 26052U 00001A   22266.63521660  .00000045  00000+0  00000+0 0  9990
2 26052   9.6909  41.7963 0001957 171.1442 198.6251  1.00276855 19301
ASIASTAR                
1 26107U 00016A   22267.58453877 -.00000330  00000+0  00000+0 0  9994
2 26107   5.9067  71.1416 0004407 122.7557 124.9079  1.00267812 82266
USA 149 (DSP 20)        
1 26356U 00024A   22267.57602286  .00000102  00000+0  00000+0 0  9994
2 26356  12.1525  20.8513 0000871 338.0144  46.4621  1.00262779 19263
TDRS 8                  
1 26388U 00034A   22266.87965997 -.00000230  00000+0  00000+0 0  9996
2 26388  10.5210  41.8571 0017632 344.9724  21.9023  1.00274248 81527
INTELSAT 9 (IS-9)       
1 26451U 00043A   22267.27965959 -.00000284  00000+0  00000+0 0  9999
2 26451   7.4198  60.5251 0002664 137.8447 215.4375  1.00273096 30480
NSS-11 (AAP-1)          
1 26554U 00059A   22267.55380760  .00000023  00000+0  00000+0 0  9992
2 26554   0.0172 149.1104 0002162  41.4650 188.1541  1.00269748 27638
USA 153                 
1 26575U 00065A   22267.25805509 -.00000320  00000+0  00000+0 0  9993
2 26575   9.2645  45.1197 0001711 209.1663 336.0532  1.00267456 19279
AMC-6 (GE-6)            
1 26580U 00067A   22267.49260108  .00000103  00000+0  00000+0 0  9995
2 26580   0.0167 168.9411 0002704  12.9798 219.7123  1.00271512 80255
INTELSAT 1R (IS-1R)     
1 26608U 00072A   22267.53085233 -.00000136  00000+0  00000+0 0  9998
2 26608   4.6900  79.7184 0000147 197.2890  74.5529  1.00271167 27665
ANIK F1                 
1 26624U 00076A   22267.52989876 -.00000062  00000+0  00000+0 0  9993
2 26624   1.6795  91.3894 0008624  55.1560 298.3759  1.00272581 29488
ASTRA 2D                
1 26638U 00081A   22267.16422753  .00000132  00000+0  00000+0 0  9997
2 26638   7.4988  59.6190 0001957 142.3157 243.8326  1.00272334 39257
AMC-8 (GE-8)            
1 26639U 00081B   22267.49747867  .00000088  00000+0  00000+0 0  9990
2 26639   2.6909  87.4951 0002285  47.3231 272.5963  1.00272295 79676
USA 157 (MILSTAR-2 2)   
1 26715U 01009A   22267.51189781  .00000018  00000+0  00000+0 0  9997
2 26715  10.0990  26.8376 0003187 165.7491 230.9603  1.00267221 17996
EUTELSAT 133 WEST A     
1 26719U 01011A   22267.50076569  .00000078  00000+0  00000+0 0  9998
2 26719   3.9509  81.7912 0001830 107.1722 221.7899  1.00271947 78883
INTELSAT 10 (IS-10)     
1 26766U 01019A   22267.55829278  .00000037  00000+0  00000+0 0  9991
2 26766   5.8078  72.4964 0002605 122.9251 186.7498  1.00272827 31965
INTELSAT 901 (IS-901)   
1 26824U 01024A   22267.27375821 -.00000204  00000+0  00000+0 0  9998
2 26824   0.0248 179.2551 0001073  29.6988 225.2006  1.00270704  9312
ASTRA 2C                
1 26853U 01025A   22267.26229917 -.00000257  00000+0  00000+0 0  9992
2 26853   4.8048  78.3381 0002896 116.6382 190.0462  1.00269569 31387
USA 159 (DSP 21)        
1 26880U 01033A   22267.19424571 -.00000291  00000+0  00000+0 0  9994
2 26880  11.5126  25.1662 0000297 355.6009   2.7751  1.00282273 17959
INTELSAT 902 (IS-902)   
1 26900U 01039A   22267.27965959 -.00000282  00000+0  00000+0 0  9992
2 26900   2.6490  87.8872 0002470 105.6143 220.1812  1.00270890 77033
USA 164 (MILSTAR-2 3)   
1 27168U 02001A   22267.01982377  .00000105  00000+0  00000+0 0  9997
2 27168   9.6102  28.6054 0002594 176.3612 183.9867  1.00275724 17991
ECHOSTAR 7              
1 27378U 02006A   22267.28521674 -.00000243  00000+0  00000+0 0  9997
2 27378   0.4867  93.0892 0002972  39.6178 267.8757  0.99839533 36931
INTELSAT 904 (IS-904)   
1 27380U 02007A   22267.27410543 -.00000213  00000+0  00000+0 0  9999
2 27380   3.4785  84.8629 0002775 100.2207 247.1921  1.00270635 38101
TDRS 9                  
1 27389U 02011A   22267.28521674 -.00000282  00000+0  00000+0 0  9998
2 27389   9.2271  59.8981 0022059 296.1871  47.4095  1.00270426 76783
ASTRA 3A                
1 27400U 02015B   22267.12619000 -.00000200  00000+0  00000+0 0  9990
2 27400   7.5967  58.4979 0001684 144.3126 118.8272  1.00272590 75064
NSS-7                   
1 27414U 02019A   22267.22736057 -.00000155  00000+0  00000+0 0  9991
2 27414   6.1260  70.4790 0002268 120.8088 233.6182  1.00271578 74903
DIRECTV 5 (TEMPO 1)     
1 27426U 02023A   22267.52810009 -.00000056  00000+0  00000+0 0  9992
2 27426   1.3731  91.9793 0003081  90.3839 260.9863  1.00271443 74467
INTELSAT 905 (IS-905)   
1 27438U 02027A   22267.22640137 -.00000184  00000+0  00000+0 0  9991
2 27438   3.3004  85.5933 0002513  93.0322 241.4427  1.00272620 37700
GALAXY 3C (G-3C)        
1 27445U 02030A   22267.18243995 -.00000154  00000+0  00000+0 0  9996
2 27445   0.2236  88.2292 0000652 202.5996  43.0276  1.00272245 32835
